MTI                     
1 26102U 00014A   16139.13652457  .00006881  00000-0  16079-3 0  9998
2 26102  97.5313 288.4992 0007831 261.3570 152.0884 15.42488013893538
CFESAT                  
1 30777U 07006F   16138.25307731  .00006932  00000-0  24760-3 0  9996
2 30777  35.4303  71.9174 0002904   2.2897 357.7840 15.28215619507338
SPIRALE A               
1 33751U 09008C   16138.53618212  .00000126  00000-0  20365-3 0  9991
2 33751   1.9958 193.1120 5562870  17.6485 355.8560  4.58593455 92689
SPIRALE B               
1 33752U 09008D   16136.81538940  .00006143  00000-0  15698-2 0  9997
2 33752   1.8063 199.8721 6985853 355.1212   0.7603  2.65969325 64148
SAPPHIRE                
1 39088U 13009C   16138.51662932  .00000041  00000-0  30417-4 0  9998
2 39088  98.5848 339.0539 0012034  32.6621 327.5306 14.34099769168669
